[{"OBJECT_NAME":"NETSAT-1","OBJECT_ID":"2020-068W","EPOCH":"2026-03-09T22:42:38.711232","MEAN_MOTION":15.32042482,"ECCENTRICITY":0.00057337,"INCLINATION":97.8751,"RA_OF_ASC_NODE":63.2583,"ARG_OF_PERICENTER":18.5877,"MEAN_ANOMALY":341.5572,"EPHEMERIS_TYPE":0,"CLASSIFICATION_TYPE":"U","NORAD_CAT_ID":46506,"ELEMENT_SET_NO":999,"REV_AT_EPOCH":30009,"BSTAR":0.00059222329,"MEAN_MOTION_DOT":0.00018269,"MEAN_MOTION_DDOT":0},{"OBJECT_NAME":"STARLINK-35337","OBJECT_ID":"2025-221J","EPOCH":"2026-03-09T08:37:32.758752","MEAN_MOTION":15.30210838,"ECCENTRICITY":0.00010014,"INCLINATION":53.1594,"RA_OF_ASC_NODE":89.8199,"ARG_OF_PERICENTER":89.3245,"MEAN_ANOMALY":270.787,"EPHEMERIS_TYPE":0,"CLASSIFICATION_TYPE":"U","NORAD_CAT_ID":65831,"ELEMENT_SET_NO":999,"REV_AT_EPOCH":2603,"BSTAR":0.00079446404,"MEAN_MOTION_DOT":0.00023252,"MEAN_MOTION_DDOT":0}]
